[{"OBJECT_NAME":"MATS","OBJECT_ID":"2022-147A","EPOCH":"2026-03-09T23:39:00.807264","MEAN_MOTION":15.0466868,"ECCENTRICITY":0.00129708,"INCLINATION":97.6844,"RA_OF_ASC_NODE":71.061,"ARG_OF_PERICENTER":166.9988,"MEAN_ANOMALY":193.1575,"EPHEMERIS_TYPE":0,"CLASSIFICATION_TYPE":"U","NORAD_CAT_ID":54227,"ELEMENT_SET_NO":999,"REV_AT_EPOCH":18284,"BSTAR":0.00029670702,"MEAN_MOTION_DOT":4.118e-5,"MEAN_MOTION_DDOT":0},{"OBJECT_NAME":"ION SCV-014","OBJECT_ID":"2025-009X","EPOCH":"2026-03-09T17:13:35.291712","MEAN_MOTION":15.0488465,"ECCENTRICITY":0.00064503,"INCLINATION":97.4923,"RA_OF_ASC_NODE":144.8636,"ARG_OF_PERICENTER":112.6479,"MEAN_ANOMALY":247.543,"EPHEMERIS_TYPE":0,"CLASSIFICATION_TYPE":"U","NORAD_CAT_ID":62630,"ELEMENT_SET_NO":999,"REV_AT_EPOCH":6302,"BSTAR":0.0001322874,"MEAN_MOTION_DOT":1.812e-5,"MEAN_MOTION_DDOT":0}]
